{
    "links": {
        "self": "http://www.neowsapp.com/rest/v1/neo/3727665?api_key=iIulBulltgU6a56xZRHN4H3l9WmuAYTsLGpBGhQ2"
    },
    "id": "3727665",
    "neo_reference_id": "3727665",
    "name": "(2015 SC)",
    "designation": "2015 SC",
    "nasa_jpl_url": "http://ssd.jpl.nasa.gov/sbdb.cgi?sstr=3727665",
    "absolute_magnitude_h": 23.4,
    "estimated_diameter": {
        "kilometers": {
            "estimated_diameter_min": 0.0555334912,
            "estimated_diameter_max": 0.1241766613
        },
        "meters": {
            "estimated_diameter_min": 55.5334911581,
            "estimated_diameter_max": 124.1766612574
        },
        "miles": {
            "estimated_diameter_min": 0.0345069009,
            "estimated_diameter_max": 0.0771597762
        },
        "feet": {
            "estimated_diameter_min": 182.1964991311,
            "estimated_diameter_max": 407.4037573197
        }
    },
    "is_potentially_hazardous_asteroid": false,
    "close_approach_data": [
        {
            "close_approach_date": "2015-09-05",
            "close_approach_date_full": "2015-Sep-05 06:28",
            "epoch_date_close_approach": 1441434480000,
            "relative_velocity": {
                "kilometers_per_second": "13.1703420045",
                "kilometers_per_hour": "47413.2312162432",
                "miles_per_hour": "29460.7380298929"
            },
            "miss_distance": {
                "astronomical": "0.2555570468",
                "lunar": "99.4116912052",
                "kilometers": "38230789.864770316",
                "miles": "23755511.2642737208"
            },
            "orbiting_body": "Earth"
        }
    ],
    "orbital_data": {
        "orbit_id": "3",
        "orbit_determination_date": "2017-04-06 08:31:52",
        "first_observation_date": "2015-09-16",
        "last_observation_date": "2015-09-18",
        "data_arc_in_days": 2,
        "observations_used": 10,
        "orbit_uncertainty": "9",
        "minimum_orbit_intersection": ".230325",
        "jupiter_tisserand_invariant": "4.875",
        "epoch_osculation": "2457282.5",
        "eccentricity": ".05466490005029501",
        "semi_major_axis": "1.309084488353612",
        "inclination": "26.06205468820341",
        "ascending_node_longitude": "166.255908424348",
        "orbital_period": "547.0788711507075",
        "perihelion_distance": "1.23752351564037",
        "perihelion_argument": "184.536759530127",
        "aphelion_distance": "1.380645461066854",
        "perihelion_time": "2457289.172939170732",
        "mean_anomaly": "355.6089364292014",
        "mean_motion": ".6580404014558047",
        "equinox": "J2000",
        "orbit_class": {
            "orbit_class_type": "AMO",
            "orbit_class_description": "Near-Earth asteroid orbits similar to that of 1221 Amor",
            "orbit_class_range": "1.017 AU < q (perihelion) < 1.3 AU"
        }
    },
    "is_sentry_object": false
}